ONEWEB-0271             
1 48989U 21060Y   24317.03413734  .00000052  00000+0  10272-3 0  9990
2 48989  87.9104 344.7431 0002078  85.9280 274.2088 13.16596660164357
ONEWEB-0272             
1 48990U 21060Z   24316.52432789  .00000144  00000+0  34329-3 0  9997
2 48990  87.9105 344.8748 0002061  89.5964 270.5403 13.16595508162946
ONEWEB-0273             
1 48991U 21060AA  24316.77448525  .00000121  00000+0  28321-3 0  9990
2 48991  87.9106 344.8108 0001795  87.1229 273.0108 13.16595536164256
ONEWEB-0274             
1 48992U 21060AB  24316.79981876 -.00000010  00000+0 -60496-4 0  9993
2 48992  87.9112 344.8293 0002360  96.2276 263.9124 13.16595803164298
ONEWEB-0275             
1 48993U 21060AC  24317.09272419  .00000033  00000+0  52189-4 0  9997
2 48993  87.9109 344.7425 0001935  89.7040 270.4313 13.16595831164254
ONEWEB-0276             
1 48994U 21060AD  24316.51799455  .00000099  00000+0  22592-3 0  9994
2 48994  87.9102 344.8533 0001842  85.4413 274.6929 13.16595335162901
ONEWEB-0277             
1 48995U 21060AE  24317.06264026  .00000121  00000+0  28368-3 0  9990
2 48995  87.9102 344.7827 0002131  82.3000 277.8373 13.16595672164259
ONEWEB-0278             
1 48996U 21060AF  24317.05313790  .00000103  00000+0  23536-3 0  9995
2 48996  87.9104 344.7440 0001536  92.8041 267.3266 13.16595540164408
ONEWEB-0279             
1 48997U 21060AG  24317.06105919  .00000168  00000+0  40649-3 0  9994
2 48997  87.9104 344.7393 0002132  85.8755 274.2619 13.16594699164327
ONEWEB-0280             
1 48998U 21060AH  24317.07612203  .00000163  00000+0  39277-3 0  9995
2 48998  87.9106 344.7398 0001763  81.0925 279.0405 13.16596415164257
ONEWEB-0281             
1 48999U 21060AJ  24316.32166884  .00000194  00000+0  47282-3 0  9991
2 48999  87.9109 344.8896 0002020  98.2224 261.9136 13.16596445162931
ONEWEB-0282             
1 49000U 21060AK  24316.35175220 -.00000020  00000+0 -85562-4 0  9996
2 49000  87.9103 344.9005 0001839  84.3318 275.8022 13.16595801162910
ONEWEB-0283             
1 49001U 21060AL  24316.79665187 -.00000002  00000+0 -39509-4 0  9991
2 49001  87.9103 344.8169 0002068  89.1882 270.9486 13.16595628164307
ONEWEB-0284             
1 49002U 21060AM  24317.09429827  .00000067  00000+0  14275-3 0  9996
2 49002  87.9101 344.7326 0001651  92.7972 267.3348 13.16596575164317
ONEWEB-0285             
1 49075U 21075A   24317.37071430 -.00000646  00000+0 -18322-2 0  9997
2 49075  87.8853 106.5256 0001429  94.3646 265.7646 13.12442017159870
ONEWEB-0286             
1 49076U 21075B   24316.80853014  .00000315  00000+0  83979-3 0  9993
2 49076  87.8845 106.6356 0001424 104.6899 255.4388 13.12444697159150
ONEWEB-0287             
1 49077U 21075C   24317.41965100  .00000145  00000+0  33981-3 0  9991
2 49077  87.9070 121.7570 0001345  96.2812 263.8473 13.17651218157982
ONEWEB-0288             
1 49078U 21075D   24316.71853000  .00000578  00000+0  15725-2 0  9994
2 49078  87.8847 106.6569 0001389  94.1932 265.9356 13.12443827159774
ONEWEB-0289             
1 49079U 21075E   24316.76493133  .00000143  00000+0  33459-3 0  9990
2 49079  87.9072 121.9165 0001620  90.0954 270.0363 13.17650589158476
ONEWEB-0290             
1 49080U 21075F   24317.50741610  .00000163  00000+0  38647-3 0  9997
2 49080  87.9067 121.7277 0001470  64.9337 295.1947 13.17650149157996
ONEWEB-0291             
1 49081U 21075G   24317.18848334  .00000044  00000+0  80757-4 0  9991
2 49081  87.9063 121.8050 0001304  94.2289 265.8992 13.17650126157956
ONEWEB-0293             
1 49082U 21075H   24316.75816226 -.00000283  00000+0 -76266-3 0  9995
2 49082  87.9069 121.9121 0001400  85.3648 274.7644 13.17648037157917
ONEWEB-0294             
1 49083U 21075J   24317.41114324  .00000588  00000+0  15993-2 0  9995
2 49083  87.8848 106.5179 0000932  82.1127 278.0107 13.12441053159254
ONEWEB-0295             
1 49084U 21075K   24317.21294396  .00000036  00000+0  59852-4 0  9994
2 49084  87.9070 121.8002 0001145 102.7976 257.3283 13.17650429157916
ONEWEB-0296             
1 49085U 21075L   24317.39167183 -.00003221  00000+0 -89902-2 0  9995
2 49085  87.8847 106.5257 0000902 100.7535 259.3695 13.12459193159257
ONEWEB-0297             
1 49086U 21075M   24316.66012415  .00000203  00000+0  52975-3 0  9998
2 49086  87.8857 106.6897 0001533  97.0647 263.0656 13.12443849159769
ONEWEB-0298             
1 49087U 21075N   24316.23012211  .00000078  00000+0  16707-3 0  9999
2 49087  87.9073 122.0137 0001595 100.5939 259.5373 13.17648501156852
ONEWEB-0299             
1 49088U 21075P   24317.44666989  .00004168  00000+0  10699-1 0  9997
2 49088  87.9065 121.7344 0001619 103.3720 256.7592 13.17628180157962
ONEWEB-0300             
1 49089U 21075Q   24316.88072861  .00000406  00000+0  10923-2 0  9997
2 49089  87.8846 106.6215 0001930  95.1344 265.0005 13.12440421159817
ONEWEB-0301             
1 49090U 21075R   24316.71203318  .00000441  00000+0  11915-2 0  9995
2 49090  87.8847 106.6595 0001840  92.9088 267.2251 13.12443057159153
ONEWEB-0302             
1 49091U 21075S   24317.15647149 -.00000137  00000+0 -41684-3 0  9990
2 49091  87.8846 106.5703 0001108  88.4157 271.7099 13.12442992159200
ONEWEB-0304             
1 49092U 21075T   24317.42135301 -.00001537  00000+0 -39941-2 0  9990
2 49092  87.9068 121.7612 0001516  96.7687 263.3617 13.17633362157949
ONEWEB-0305             
1 49093U 21075U   24317.18677394 -.00000034  00000+0 -12053-3 0  9994
2 49093  87.9065 121.7910 0001426 109.2116 250.9170 13.17650208157938
ONEWEB-0308             
1 49094U 21075V   24316.69256001 -.00000234  00000+0 -68652-3 0  9996
2 49094  87.8842 106.6603 0001630  93.9624 266.1691 13.12445948159175
ONEWEB-0309             
1 49095U 21075W   24317.19017321  .00000092  00000+0  20354-3 0  9990
2 49095  87.9068 121.7994 0001161  77.5500 282.5762 13.17648834157924
ONEWEB-0310             
1 49096U 21075X   24316.70716097  .00000262  00000+0  69294-3 0  9998
2 49096  87.8856 106.6790 0001434  91.0174 269.1119 13.12446261159784
ONEWEB-0311             
1 49097U 21075Y   24317.19692194  .00000037  00000+0  62119-4 0  9994
2 49097  87.9069 121.7994 0001526 108.6339 251.4958 13.17647964157989
ONEWEB-0312             
1 49098U 21075Z   24316.45273721  .00000114  00000+0  26089-3 0  9995
2 49098  87.9072 121.9791 0001107  99.6893 260.4363 13.17648592156864
ONEWEB-0313             
1 49099U 21075AA  24316.76142412  .00000031  00000+0  46242-4 0  9994
2 49099  87.9068 121.9335 0001320  97.2111 262.9171 13.17649057157893
ONEWEB-0314             
1 49100U 21075AB  24316.72778332 -.00000176  00000+0 -48583-3 0  9990
2 49100  87.9062 121.8794 0001215 101.8897 258.2371 13.17648707157851
ONEWEB-0315             
1 49101U 21075AC  24316.68121024 -.00000358  00000+0 -10311-2 0  9995
2 49101  87.8846 106.6547 0001712 108.1336 251.9979 13.12444426159761
ONEWEB-0316             
1 49102U 21075AD  24316.80737205  .00000120  00000+0  27258-3 0  9998
2 49102  87.9086  91.3532 0001619 104.7321 255.3990 13.18686252161467
ONEWEB-0317             
1 49103U 21075AE  24316.67471548 -.00000302  00000+0 -87580-3 0  9997
2 49103  87.8849 106.6681 0001719  78.4294 281.7027 13.12444402159774
ONEWEB-0318             
1 49104U 21075AF  24316.80421768  .00000133  00000+0  30337-3 0  9990
2 49104  87.9084  91.3434 0001649 108.1204 252.0107 13.18686924161414
ONEWEB-0319             
1 49105U 21075AG  24317.42641153  .00000156  00000+0  36969-3 0  9994
2 49105  87.9068 121.7788 0001529 109.9801 250.1496 13.17648208157985
ONEWEB-0323             
1 49106U 21075AH  24317.35112283  .00000253  00000+0  66855-3 0  9999
2 49106  87.8851 106.5199 0001577 126.8320 233.2953 13.12439538159238
ONEWEB-0329             
1 49107U 21075AJ  24317.51079276  .00000153  00000+0  36007-3 0  9997
2 49107  87.9068 121.7665 0001429  98.7156 261.4137 13.17647820157973
ONEWEB-0330             
1 49108U 21075AK  24316.44937145  .00000107  00000+0  24177-3 0  9991
2 49108  87.9071 121.9794 0001290  91.1383 268.9896 13.17647841156884
ONEWEB-0292             
1 49186U 21083A   24316.78658533  .00000410  00000+0  10874-2 0  9999
2 49186  87.8919  76.1059 0001692 106.3120 253.8195 13.13472178155765
ONEWEB-0303             
1 49187U 21083B   24316.80105600  .00000055  00000+0  10704-3 0  9993
2 49187  87.9084  91.3451 0001671 105.6979 254.4338 13.18684781154503
ONEWEB-0306             
1 49188U 21083C   24316.79156150  .00000036  00000+0  57920-4 0  9999
2 49188  87.9087  91.3333 0001472  91.7359 268.3942 13.18688798154543
ONEWEB-0307             
1 49189U 21083D   24316.78103250  .00000331  00000+0  87108-3 0  9990
2 49189  87.8916  76.1084 0001404  90.7978 269.3312 13.13472097155764
ONEWEB-0320             
1 49190U 21083E   24316.79789022  .00000044  00000+0  79420-4 0  9990
2 49190  87.9089  91.3582 0001568  97.6174 262.5136 13.18684580154502
ONEWEB-0321             
1 49191U 21083F   24317.16149998  .00000199  00000+0  45796-3 0  9994
2 49191  87.9291  30.2252 0001825  93.6033 266.5309 13.20768891161280
ONEWEB-0322             
1 49192U 21083G   24316.62472699  .00000246  00000+0  63957-3 0  9994
2 49192  87.8919  76.1291 0001654  84.4270 275.7048 13.13471493154443
ONEWEB-0324             
1 49193U 21083H   24316.78366899  .00000067  00000+0  13778-3 0  9993
2 49193  87.9089  91.3418 0001338 103.0185 257.1097 13.18687213154526
ONEWEB-0325             
1 49194U 21083J   24317.31954031  .00000167  00000+0  39117-3 0  9991
2 49194  87.9087  91.2503 0001612  96.2019 263.9296 13.18685497154600
ONEWEB-0326             
1 49195U 21083K   24316.80263257  .00000222  00000+0  52954-3 0  9994
2 49195  87.9079  91.3485 0001785 113.1761 246.9559 13.18683850154521
ONEWEB-0327             
1 49196U 21083L   24317.33297780  .00000183  00000+0  43151-3 0  9997
2 49196  87.9090  91.2689 0001755 107.7136 252.4187 13.18683989154614
